[{"OBJECT_NAME":"OSCAR 7 (AO-7)","OBJECT_ID":"1974-089B","EPOCH":"2026-03-28T13:26:48.080544","MEAN_MOTION":12.53696708,"ECCENTRICITY":0.00118629,"INCLINATION":101.9957,"RA_OF_ASC_NODE":99.9536,"ARG_OF_PERICENTER":285.3194,"MEAN_ANOMALY":195.1249,"EPHEMERIS_TYPE":0,"CLASSIFICATION_TYPE":"U","NORAD_CAT_ID":7530,"ELEMENT_SET_NO":999,"REV_AT_EPOCH":35041,"BSTAR":0.00014351244,"MEAN_MOTION_DOT":-2.4e-7,"MEAN_MOTION_DDOT":0},{"OBJECT_NAME":"PHASE 3B (AO-10)","OBJECT_ID":"1983-058B","EPOCH":"2026-03-25T08:37:11.679744","MEAN_MOTION":2.05874335,"ECCENTRICITY":0.60409983,"INCLINATION":25.9114,"RA_OF_ASC_NODE":233.602,"ARG_OF_PERICENTER":92.4738,"MEAN_ANOMALY":333.4977,"EPHEMERIS_TYPE":0,"CLASSIFICATION_TYPE":"U","NORAD_CAT_ID":14129,"ELEMENT_SET_NO":999,"REV_AT_EPOCH":29376,"BSTAR":0,"MEAN_MOTION_DOT":-3.51e-6,"MEAN_MOTION_DDOT":0},{"OBJECT_NAME":"UOSAT 2 (UO-11)","OBJECT_ID":"1984-021B","EPOCH":"2026-03-28T11:17:21.042816","MEAN_MOTION":14.90569775,"ECCENTRICITY":0.00091868,"INCLINATION":97.7979,"RA_OF_ASC_NODE":53.9964,"ARG_OF_PERICENTER":90.6259,"MEAN_ANOMALY":269.6012,"EPHEMERIS_TYPE":0,"CLASSIFICATION_TYPE":"U","NORAD_CAT_ID":14781,"ELEMENT_SET_NO":999,"REV_AT_EPOCH":24510,"BSTAR":0.00017760501,"MEAN_MOTION_DOT":1.682e-5,"MEAN_MOTION_DDOT":0},{"OBJECT_NAME":"LUSAT (LO-19)","OBJECT_ID":"1990-005G","EPOCH":"2026-03-28T14:21:49.432320","MEAN_MOTION":14.34095708,"ECCENTRICITY":0.00126859,"INCLINATION":98.892,"RA_OF_ASC_NODE":107.1602,"ARG_OF_PERICENTER":83.4954,"MEAN_ANOMALY":276.7673,"EPHEMERIS_TYPE":0,"CLASSIFICATION_TYPE":"U","NORAD_CAT_ID":20442,"ELEMENT_SET_NO":999,"REV_AT_EPOCH":89084,"BSTAR":7.5194193e-5,"MEAN_MOTION_DOT":1.64e-6,"MEAN_MOTION_DDOT":0},{"OBJECT_NAME":"EYESAT A (AO-27)","OBJECT_ID":"1993-061C","EPOCH":"2026-03-28T14:04:58.760544","MEAN_MOTION":14.3091918,"ECCENTRICITY":0.00079193,"INCLINATION":98.6945,"RA_OF_ASC_NODE":155.0077,"ARG_OF_PERICENTER":344.5745,"MEAN_ANOMALY":15.5195,"EPHEMERIS_TYPE":0,"CLASSIFICATION_TYPE":"U","NORAD_CAT_ID":22825,"ELEMENT_SET_NO":999,"REV_AT_EPOCH":69547,"BSTAR":5.9090944e-5,"MEAN_MOTION_DOT":1.1e-6,"MEAN_MOTION_DDOT":0},{"OBJECT_NAME":"ITAMSAT (IO-26)","OBJECT_ID":"1993-061D","EPOCH":"2026-03-28T10:48:29.782080","MEAN_MOTION":14.31343795,"ECCENTRICITY":0.00081472,"INCLINATION":98.6893,"RA_OF_ASC_NODE":154.7806,"ARG_OF_PERICENTER":327.0091,"MEAN_ANOMALY":33.0583,"EPHEMERIS_TYPE":0,"CLASSIFICATION_TYPE":"U","NORAD_CAT_ID":22826,"ELEMENT_SET_NO":999,"REV_AT_EPOCH":69576,"BSTAR":6.5762326e-5,"MEAN_MOTION_DOT":1.29e-6,"MEAN_MOTION_DDOT":0},{"OBJECT_NAME":"RADIO ROSTO (RS15)","OBJECT_ID":"1994-085A","EPOCH":"2026-03-28T11:56:33.446976","MEAN_MOTION":11.27583748,"ECCENTRICITY":0.01533824,"INCLINATION":64.8146,"RA_OF_ASC_NODE":73.7114,"ARG_OF_PERICENTER":18.5285,"MEAN_ANOMALY":342.1141,"EPHEMERIS_TYPE":0,"CLASSIFICATION_TYPE":"U","NORAD_CAT_ID":23439,"ELEMENT_SET_NO":999,"REV_AT_EPOCH":28680,"BSTAR":-0.00036167621,"MEAN_MOTION_DOT":-5.5e-7,"MEAN_MOTION_DDOT":0},{"OBJECT_NAME":"JAS-2 (FO-29)","OBJECT_ID":"1996-046B","EPOCH":"2026-03-28T13:45:36.995904","MEAN_MOTION":13.53269913,"ECCENTRICITY":0.03490755,"INCLINATION":98.5349,"RA_OF_ASC_NODE":307.4361,"ARG_OF_PERICENTER":305.7298,"MEAN_ANOMALY":51.1832,"EPHEMERIS_TYPE":0,"CLASSIFICATION_TYPE":"U","NORAD_CAT_ID":24278,"ELEMENT_SET_NO":999,"REV_AT_EPOCH":46226,"BSTAR":1.2501309e-5,"MEAN_MOTION_DOT":-2.6e-7,"MEAN_MOTION_DDOT":0},{"OBJECT_NAME":"TECHSAT 1B (GO-32)","OBJECT_ID":"1998-043D","EPOCH":"2026-03-28T11:53:06.938016","MEAN_MOTION":14.2441101,"ECCENTRICITY":0.00023366,"INCLINATION":99.0047,"RA_OF_ASC_NODE":78.2313,"ARG_OF_PERICENTER":88.9707,"MEAN_ANOMALY":271.1738,"EPHEMERIS_TYPE":0,"CLASSIFICATION_TYPE":"U","NORAD_CAT_ID":25397,"ELEMENT_SET_NO":999,"REV_AT_EPOCH":43984,"BSTAR":5.9017597e-5,"MEAN_MOTION_DOT":9.0e-7,"MEAN_MOTION_DDOT":0},{"OBJECT_NAME":"ISS (ZARYA)","OBJECT_ID":"1998-067A","EPOCH":"2026-03-28T11:41:48.111360","MEAN_MOTION":15.486078,"ECCENTRICITY":0.0006231,"INCLINATION":51.6344,"RA_OF_ASC_NODE":339.4313,"ARG_OF_PERICENTER":242.6596,"MEAN_ANOMALY":117.3758,"EPHEMERIS_TYPE":0,"CLASSIFICATION_TYPE":"U","NORAD_CAT_ID":25544,"ELEMENT_SET_NO":999,"REV_AT_EPOCH":55924,"BSTAR":0.00022419,"MEAN_MOTION_DOT":0.00011758,"MEAN_MOTION_DDOT":0},{"OBJECT_NAME":"PCSAT (NO-44)","OBJECT_ID":"2001-043C","EPOCH":"2026-03-28T10:00:39.971520","MEAN_MOTION":14.31921117,"ECCENTRICITY":0.00068967,"INCLINATION":67.0488,"RA_OF_ASC_NODE":93.1758,"ARG_OF_PERICENTER":264.7045,"MEAN_ANOMALY":95.327,"EPHEMERIS_TYPE":0,"CLASSIFICATION_TYPE":"U","NORAD_CAT_ID":26931,"ELEMENT_SET_NO":999,"REV_AT_EPOCH":27888,"BSTAR":9.5030448e-5,"MEAN_MOTION_DOT":1.72e-6,"MEAN_MOTION_DDOT":0},{"OBJECT_NAME":"SAUDISAT 1C (SO-50)","OBJECT_ID":"2002-058C","EPOCH":"2026-03-28T05:33:28.980288","MEAN_MOTION":14.82854107,"ECCENTRICITY":0.0075445,"INCLINATION":64.5539,"RA_OF_ASC_NODE":19.424,"ARG_OF_PERICENTER":277.227,"MEAN_ANOMALY":82.0264,"EPHEMERIS_TYPE":0,"CLASSIFICATION_TYPE":"U","NORAD_CAT_ID":27607,"ELEMENT_SET_NO":999,"REV_AT_EPOCH":25245,"BSTAR":0.00020667,"MEAN_MOTION_DOT":1.607e-5,"MEAN_MOTION_DDOT":0},{"OBJECT_NAME":"CUTE-1 (CO-55)","OBJECT_ID":"2003-031E","EPOCH":"2026-03-28T14:26:38.308128","MEAN_MOTION":14.24281335,"ECCENTRICITY":0.00106301,"INCLINATION":98.6773,"RA_OF_ASC_NODE":97.1664,"ARG_OF_PERICENTER":63.2867,"MEAN_ANOMALY":296.9399,"EPHEMERIS_TYPE":0,"CLASSIFICATION_TYPE":"U","NORAD_CAT_ID":27844,"ELEMENT_SET_NO":999,"REV_AT_EPOCH":18020,"BSTAR":0.00017670909,"MEAN_MOTION_DOT":3.64e-6,"MEAN_MOTION_DDOT":0},{"OBJECT_NAME":"CUBESAT XI-IV (CO-57)","OBJECT_ID":"2003-031J","EPOCH":"2026-03-28T13:12:05.572800","MEAN_MOTION":14.23574119,"ECCENTRICITY":0.00106143,"INCLINATION":98.6807,"RA_OF_ASC_NODE":96.8929,"ARG_OF_PERICENTER":79.7322,"MEAN_ANOMALY":280.5053,"EPHEMERIS_TYPE":0,"CLASSIFICATION_TYPE":"U","NORAD_CAT_ID":27848,"ELEMENT_SET_NO":999,"REV_AT_EPOCH":17990,"BSTAR":0.00015151518,"MEAN_MOTION_DOT":3.01e-6,"MEAN_MOTION_DDOT":0},{"OBJECT_NAME":"MOZHAETS 4 (RS22)","OBJECT_ID":"2003-042A","EPOCH":"2026-03-28T14:34:07.055040","MEAN_MOTION":14.73303625,"ECCENTRICITY":0.00116601,"INCLINATION":98.346,"RA_OF_ASC_NODE":269.6967,"ARG_OF_PERICENTER":158.6443,"MEAN_ANOMALY":291.5826,"EPHEMERIS_TYPE":0,"CLASSIFICATION_TYPE":"U","NORAD_CAT_ID":27939,"ELEMENT_SET_NO":999,"REV_AT_EPOCH":20368,"BSTAR":0.00016730513,"MEAN_MOTION_DOT":1.029e-5,"MEAN_MOTION_DDOT":0},{"OBJECT_NAME":"CUBESAT XI-V","OBJECT_ID":"2005-043F","EPOCH":"2026-03-28T09:42:35.764704","MEAN_MOTION":14.7239442,"ECCENTRICITY":0.00153582,"INCLINATION":98.2868,"RA_OF_ASC_NODE":241.3872,"ARG_OF_PERICENTER":101.965,"MEAN_ANOMALY":258.3279,"EPHEMERIS_TYPE":0,"CLASSIFICATION_TYPE":"U","NORAD_CAT_ID":28895,"ELEMENT_SET_NO":999,"REV_AT_EPOCH":8986,"BSTAR":0.0003243232,"MEAN_MOTION_DOT":2.005e-5,"MEAN_MOTION_DDOT":0}]
